[{"OBJECT_NAME":"STARLINK-34184","OBJECT_ID":"2025-102B","EPOCH":"2025-11-06T17:51:37.501056","MEAN_MOTION":14.98340176,"ECCENTRICITY":0.0003201,"INCLINATION":70.0029,"RA_OF_ASC_NODE":64.5485,"ARG_OF_PERICENTER":270.5717,"MEAN_ANOMALY":89.5075,"EPHEMERIS_TYPE":0,"CLASSIFICATION_TYPE":"U","NORAD_CAT_ID":64023,"ELEMENT_SET_NO":999,"REV_AT_EPOCH":2754,"BSTAR":0.00035652,"MEAN_MOTION_DOT":4.165e-5,"MEAN_MOTION_DDOT":0},{"OBJECT_NAME":"STARLINK-34087","OBJECT_ID":"2025-102C","EPOCH":"2025-11-06T18:39:42.524928","MEAN_MOTION":14.98341922,"ECCENTRICITY":0.0003163,"INCLINATION":70.0044,"RA_OF_ASC_NODE":64.2656,"ARG_OF_PERICENTER":275.129,"MEAN_ANOMALY":84.9508,"EPHEMERIS_TYPE":0,"CLASSIFICATION_TYPE":"U","NORAD_CAT_ID":64024,"ELEMENT_SET_NO":999,"REV_AT_EPOCH":2743,"BSTAR":0.0017112,"MEAN_MOTION_DOT":0.00020391,"MEAN_MOTION_DDOT":0},{"OBJECT_NAME":"STARLINK-34088","OBJECT_ID":"2025-102D","EPOCH":"2025-11-06T18:03:52.880832","MEAN_MOTION":14.98346224,"ECCENTRICITY":0.0003477,"INCLINATION":70.0032,"RA_OF_ASC_NODE":64.5719,"ARG_OF_PERICENTER":274.6664,"MEAN_ANOMALY":85.4098,"EPHEMERIS_TYPE":0,"CLASSIFICATION_TYPE":"U","NORAD_CAT_ID":64025,"ELEMENT_SET_NO":999,"REV_AT_EPOCH":2754,"BSTAR":0.00060928,"MEAN_MOTION_DOT":7.188e-5,"MEAN_MOTION_DDOT":0},{"OBJECT_NAME":"STARLINK-33992","OBJECT_ID":"2025-102E","EPOCH":"2025-11-06T18:15:39.891168","MEAN_MOTION":14.98346519,"ECCENTRICITY":0.0003058,"INCLINATION":70.0033,"RA_OF_ASC_NODE":64.6088,"ARG_OF_PERICENTER":268.8821,"MEAN_ANOMALY":91.1988,"EPHEMERIS_TYPE":0,"CLASSIFICATION_TYPE":"U","NORAD_CAT_ID":64026,"ELEMENT_SET_NO":999,"REV_AT_EPOCH":2762,"BSTAR":0.00054896,"MEAN_MOTION_DOT":6.466e-5,"MEAN_MOTION_DDOT":0},{"OBJECT_NAME":"STARLINK-33967","OBJECT_ID":"2025-102F","EPOCH":"2025-11-06T17:27:34.684128","MEAN_MOTION":14.98345776,"ECCENTRICITY":0.0003796,"INCLINATION":70.0027,"RA_OF_ASC_NODE":64.4882,"ARG_OF_PERICENTER":269.9721,"MEAN_ANOMALY":90.1003,"EPHEMERIS_TYPE":0,"CLASSIFICATION_TYPE":"U","NORAD_CAT_ID":64027,"ELEMENT_SET_NO":999,"REV_AT_EPOCH":2747,"BSTAR":0.00075252,"MEAN_MOTION_DOT":8.901e-5,"MEAN_MOTION_DDOT":0},{"OBJECT_NAME":"STARLINK-33953","OBJECT_ID":"2025-102G","EPOCH":"2025-11-06T11:57:06.505344","MEAN_MOTION":14.98317412,"ECCENTRICITY":0.0003153,"INCLINATION":70.0039,"RA_OF_ASC_NODE":64.8916,"ARG_OF_PERICENTER":281.834,"MEAN_ANOMALY":78.2465,"EPHEMERIS_TYPE":0,"CLASSIFICATION_TYPE":"U","NORAD_CAT_ID":64028,"ELEMENT_SET_NO":999,"REV_AT_EPOCH":2760,"BSTAR":-4.7524e-5,"MEAN_MOTION_DOT":-6.6e-6,"MEAN_MOTION_DDOT":0},{"OBJECT_NAME":"STARLINK-33790","OBJECT_ID":"2025-102H","EPOCH":"2025-11-04T17:41:29.460192","MEAN_MOTION":14.98819708,"ECCENTRICITY":0.00034732,"INCLINATION":70.0026,"RA_OF_ASC_NODE":69.5773,"ARG_OF_PERICENTER":267.881,"MEAN_ANOMALY":92.1952,"EPHEMERIS_TYPE":0,"CLASSIFICATION_TYPE":"U","NORAD_CAT_ID":64029,"ELEMENT_SET_NO":999,"REV_AT_EPOCH":2728,"BSTAR":0.011606506,"MEAN_MOTION_DOT":0.00143062,"MEAN_MOTION_DDOT":0},{"OBJECT_NAME":"STARLINK-34030","OBJECT_ID":"2025-102J","EPOCH":"2025-11-06T14:51:22.406112","MEAN_MOTION":14.98332962,"ECCENTRICITY":0.0003164,"INCLINATION":70.0028,"RA_OF_ASC_NODE":64.913,"ARG_OF_PERICENTER":270.8854,"MEAN_ANOMALY":89.1943,"EPHEMERIS_TYPE":0,"CLASSIFICATION_TYPE":"U","NORAD_CAT_ID":64030,"ELEMENT_SET_NO":999,"REV_AT_EPOCH":2752,"BSTAR":8.7288e-5,"MEAN_MOTION_DOT":9.49e-6,"MEAN_MOTION_DDOT":0},{"OBJECT_NAME":"STARLINK-34024","OBJECT_ID":"2025-102K","EPOCH":"2025-11-06T17:39:36.169056","MEAN_MOTION":14.98348853,"ECCENTRICITY":0.000357,"INCLINATION":70.0028,"RA_OF_ASC_NODE":64.5169,"ARG_OF_PERICENTER":271.4854,"MEAN_ANOMALY":88.5897,"EPHEMERIS_TYPE":0,"CLASSIFICATION_TYPE":"U","NORAD_CAT_ID":64031,"ELEMENT_SET_NO":999,"REV_AT_EPOCH":2747,"BSTAR":0.00082219,"MEAN_MOTION_DOT":9.736e-5,"MEAN_MOTION_DDOT":0},{"OBJECT_NAME":"STARLINK-34019","OBJECT_ID":"2025-102L","EPOCH":"2025-11-06T18:33:41.409216","MEAN_MOTION":14.98326997,"ECCENTRICITY":0.0003211,"INCLINATION":70.0058,"RA_OF_ASC_NODE":64.2499,"ARG_OF_PERICENTER":273.6077,"MEAN_ANOMALY":86.4715,"EPHEMERIS_TYPE":0,"CLASSIFICATION_TYPE":"U","NORAD_CAT_ID":64032,"ELEMENT_SET_NO":999,"REV_AT_EPOCH":2755,"BSTAR":0.001935,"MEAN_MOTION_DOT":0.0002307,"MEAN_MOTION_DDOT":0},{"OBJECT_NAME":"STARLINK-33860","OBJECT_ID":"2025-102M","EPOCH":"2025-11-06T17:15:33.512832","MEAN_MOTION":14.98339983,"ECCENTRICITY":0.0003862,"INCLINATION":70.0024,"RA_OF_ASC_NODE":64.4599,"ARG_OF_PERICENTER":258.1797,"MEAN_ANOMALY":101.8929,"EPHEMERIS_TYPE":0,"CLASSIFICATION_TYPE":"U","NORAD_CAT_ID":64033,"ELEMENT_SET_NO":999,"REV_AT_EPOCH":2754,"BSTAR":0.00038806,"MEAN_MOTION_DOT":4.542e-5,"MEAN_MOTION_DDOT":0},{"OBJECT_NAME":"STARLINK-33946","OBJECT_ID":"2025-102N","EPOCH":"2025-11-06T17:21:48.587328","MEAN_MOTION":14.98336093,"ECCENTRICITY":0.0003221,"INCLINATION":70.0023,"RA_OF_ASC_NODE":64.4771,"ARG_OF_PERICENTER":271.091,"MEAN_ANOMALY":88.988,"EPHEMERIS_TYPE":0,"CLASSIFICATION_TYPE":"U","NORAD_CAT_ID":64034,"ELEMENT_SET_NO":999,"REV_AT_EPOCH":2758,"BSTAR":0.00040646,"MEAN_MOTION_DOT":4.761e-5,"MEAN_MOTION_DDOT":0},{"OBJECT_NAME":"STARLINK-34046","OBJECT_ID":"2025-102P","EPOCH":"2025-11-06T16:33:45.647424","MEAN_MOTION":14.98324423,"ECCENTRICITY":0.0002504,"INCLINATION":70.0049,"RA_OF_ASC_NODE":64.6405,"ARG_OF_PERICENTER":263.9157,"MEAN_ANOMALY":96.1716,"EPHEMERIS_TYPE":0,"CLASSIFICATION_TYPE":"U","NORAD_CAT_ID":64035,"ELEMENT_SET_NO":999,"REV_AT_EPOCH":2730,"BSTAR":-0.00092891,"MEAN_MOTION_DOT":-0.00011157,"MEAN_MOTION_DDOT":0},{"OBJECT_NAME":"STARLINK-34085","OBJECT_ID":"2025-102Q","EPOCH":"2025-11-06T17:51:51.594624","MEAN_MOTION":14.9834664,"ECCENTRICITY":0.0003451,"INCLINATION":70.0028,"RA_OF_ASC_NODE":64.5429,"ARG_OF_PERICENTER":271.4153,"MEAN_ANOMALY":88.661,"EPHEMERIS_TYPE":0,"CLASSIFICATION_TYPE":"U","NORAD_CAT_ID":64036,"ELEMENT_SET_NO":999,"REV_AT_EPOCH":2753,"BSTAR":0.00069341,"MEAN_MOTION_DOT":8.194e-5,"MEAN_MOTION_DDOT":0},{"OBJECT_NAME":"STARLINK-34008","OBJECT_ID":"2025-102R","EPOCH":"2025-11-06T17:33:51.661152","MEAN_MOTION":14.9829909,"ECCENTRICITY":0.0003359,"INCLINATION":70.0051,"RA_OF_ASC_NODE":64.498,"ARG_OF_PERICENTER":276.8339,"MEAN_ANOMALY":83.2438,"EPHEMERIS_TYPE":0,"CLASSIFICATION_TYPE":"U","NORAD_CAT_ID":64037,"ELEMENT_SET_NO":999,"REV_AT_EPOCH":2754,"BSTAR":0.0048392,"MEAN_MOTION_DOT":0.00058083,"MEAN_MOTION_DDOT":0},{"OBJECT_NAME":"STARLINK-34079","OBJECT_ID":"2025-102S","EPOCH":"2025-11-06T18:27:39.019104","MEAN_MOTION":14.983424,"ECCENTRICITY":0.0003132,"INCLINATION":70.0028,"RA_OF_ASC_NODE":64.2298,"ARG_OF_PERICENTER":269.7234,"MEAN_ANOMALY":90.3566,"EPHEMERIS_TYPE":0,"CLASSIFICATION_TYPE":"U","NORAD_CAT_ID":64038,"ELEMENT_SET_NO":999,"REV_AT_EPOCH":2764,"BSTAR":0.00065018,"MEAN_MOTION_DOT":7.676e-5,"MEAN_MOTION_DDOT":0},{"OBJECT_NAME":"STARLINK-34089","OBJECT_ID":"2025-102T","EPOCH":"2025-11-06T11:51:21.713184","MEAN_MOTION":14.9838202,"ECCENTRICITY":0.0002615,"INCLINATION":70.005,"RA_OF_ASC_NODE":65.2742,"ARG_OF_PERICENTER":279.1545,"MEAN_ANOMALY":80.9319,"EPHEMERIS_TYPE":0,"CLASSIFICATION_TYPE":"U","NORAD_CAT_ID":64039,"ELEMENT_SET_NO":999,"REV_AT_EPOCH":2749,"BSTAR":0.0027154,"MEAN_MOTION_DOT":0.000325,"MEAN_MOTION_DDOT":0}]
