STARLINK-34184          
1 64023U 25102B   25310.74418404  .00004165  00000+0  35652-3 0  9997
2 64023  70.0029  64.5485 0003201 270.5717  89.5075 14.98340176 27547
STARLINK-34087          
1 64024U 25102C   25310.77757552  .00020391  00000+0  17112-2 0  9990
2 64024  70.0044  64.2656 0003163 275.1290  84.9508 14.98341922 27434
STARLINK-34088          
1 64025U 25102D   25310.75269538  .00007188  00000+0  60928-3 0  9994
2 64025  70.0032  64.5719 0003477 274.6664  85.4098 14.98346224 27544
STARLINK-33992          
1 64026U 25102E   25310.76087837  .00006466  00000+0  54896-3 0  9991
2 64026  70.0033  64.6088 0003058 268.8821  91.1988 14.98346519 27629
STARLINK-33967          
1 64027U 25102F   25310.72748477  .00008901  00000+0  75252-3 0  9997
2 64027  70.0027  64.4882 0003796 269.9721  90.1003 14.98345776 27477
STARLINK-33953          
1 64028U 25102G   25310.49799196 -.00000660  00000+0 -47524-4 0  9994
2 64028  70.0039  64.8916 0003153 281.8340  78.2465 14.98317412 27600
STARLINK-33790          
1 64029U 25102H   25308.73714653  .00143062  00000+0  11607-1 0  9996
2 64029  70.0026  69.5773 0003473 267.8810  92.1952 14.98819708 27286
STARLINK-34030          
1 64030U 25102J   25310.61900933  .00000949  00000+0  87288-4 0  9993
2 64030  70.0028  64.9130 0003164 270.8854  89.1943 14.98332962 27520
STARLINK-34024          
1 64031U 25102K   25310.73583529  .00009736  00000+0  82219-3 0  9996
2 64031  70.0028  64.5169 0003570 271.4854  88.5897 14.98348853 27478
STARLINK-34019          
1 64032U 25102L   25310.77339594  .00023070  00000+0  19350-2 0  9994
2 64032  70.0058  64.2499 0003211 273.6077  86.4715 14.98326997 27558
STARLINK-33860          
1 64033U 25102M   25310.71913788  .00004542  00000+0  38806-3 0  9993
2 64033  70.0024  64.4599 0003862 258.1797 101.8929 14.98339983 27541
STARLINK-33946          
1 64034U 25102N   25310.72347902  .00004761  00000+0  40646-3 0  9992
2 64034  70.0023  64.4771 0003221 271.0910  88.9880 14.98336093 27587
STARLINK-34046          
1 64035U 25102P   25310.69011166 -.00011157  00000+0 -92891-3 0  9997
2 64035  70.0049  64.6405 0002504 263.9157  96.1716 14.98324423 27301
STARLINK-34085          
1 64036U 25102Q   25310.74434716  .00008194  00000+0  69341-3 0  9993
2 64036  70.0028  64.5429 0003451 271.4153  88.6610 14.98346640 27535
STARLINK-34008          
1 64037U 25102R   25310.73184793  .00058083  00000+0  48392-2 0  9994
2 64037  70.0051  64.4980 0003359 276.8339  83.2438 14.98299090 27541
STARLINK-34079          
1 64038U 25102S   25310.76920161  .00007676  00000+0  65018-3 0  9992
2 64038  70.0028  64.2298 0003132 269.7234  90.3566 14.98342400 27646
STARLINK-34089          
1 64039U 25102T   25310.49400131  .00032500  00000+0  27154-2 0  9995
2 64039  70.0050  65.2742 0002615 279.1545  80.9319 14.98382020 27498
